OBJECT_NAME,OBJECT_ID,EPOCH,MEAN_MOTION,ECCENTRICITY,INCLINATION,RA_OF_ASC_NODE,ARG_OF_PERICENTER,MEAN_ANOMALY,EPHEMERIS_TYPE,CLASSIFICATION_TYPE,NORAD_CAT_ID,ELEMENT_SET_NO,REV_AT_EPOCH,BSTAR,MEAN_MOTION_DOT,MEAN_MOTION_DDOT
ONEWEB-0054,2020-008AD,2026-03-01T11:52:48.509760,13.10375974,.0001912,87.8769,57.7073,85.8222,274.3124,0,U,45158,999,29392,-.24459E-3,-.73E-6,0
ONEWEB-0056,2020-008AE,2026-03-01T11:25:17.943168,13.10372950,.0001967,87.8764,57.7113,83.2253,276.9098,0,U,45159,999,29407,-.18683E-2,-.639E-5,0
ONEWEB-0057,2020-008AF,2026-03-01T11:36:15.779808,13.10374297,.0001698,87.8761,57.7198,80.9912,279.1407,0,U,45160,999,29424,-.13603E-2,-.462E-5,0
ONEWEB-0058,2020-008AG,2026-03-01T11:17:08.437056,13.10371223,.0001945,87.8757,57.7318,95.6576,264.4774,0,U,45161,999,29431,-.13647E-2,-.464E-5,0
ONEWEB-0059,2020-008AH,2026-03-01T11:12:09.498240,13.10370635,.0001791,87.8756,57.7327,91.9966,268.1366,0,U,45162,999,29421,-.11612E-2,-.393E-5,0
ONEWEB-0062,2020-008AJ,2026-03-01T11:49:13.107648,13.10376459,.0002097,87.8775,57.7091,98.9840,261.1524,0,U,45163,999,29408,-.59304E-3,-.194E-5,0
ONEWEB-0065,2020-008AK,2026-03-01T10:43:18.260832,13.10371563,.0001877,87.8755,57.7278,76.6865,283.4471,0,U,45164,999,29377,.16964E-2,.605E-5,0
ONEWEB-0066,2020-020A,2026-03-01T11:48:25.064928,13.11414218,.0001725,87.8852,42.4815,88.5204,271.6121,0,U,45424,999,28856,.15417E-3,.67E-6,0
ONEWEB-0067,2020-020B,2026-03-01T10:52:28.004160,13.11417730,.0001723,87.8862,42.3979,80.5190,279.6133,0,U,45425,999,28861,.12448E-4,.17E-6,0
ONEWEB-0080,2020-020C,2026-03-01T11:05:40.460640,13.11421371,.0002047,87.8853,42.4854,93.4884,266.6478,0,U,45426,999,28858,.10297E-2,.378E-5,0
ONEWEB-0090,2020-020D,2026-03-01T11:33:58.313088,13.11414428,.0001883,87.8847,42.4828,85.8439,274.2904,0,U,45427,999,28855,.13314E-2,.485E-5,0
ONEWEB-0061,2020-020E,2026-03-01T10:30:05.415552,13.11417867,.0001847,87.8853,42.4771,86.1169,274.0170,0,U,45428,999,28850,-.13927E-2,-.481E-5,0
ONEWEB-0081,2020-020F,2026-03-01T11:53:17.101248,13.11413462,.0001645,87.8853,42.4809,83.8708,276.2608,0,U,45429,999,28862,-.42512E-3,-.138E-5,0
ONEWEB-0069,2020-020G,2026-03-01T11:37:26.532768,13.11415779,.0001761,87.8846,42.4783,84.1687,275.9641,0,U,45430,999,28855,.10541E-2,.386E-5,0
ONEWEB-0031,2020-020H,2026-03-01T10:57:09.072000,13.11417910,.0001994,87.8841,42.5022,89.1644,270.9712,0,U,45431,999,28853,.4541E-3,.174E-5,0
ONEWEB-0027,2020-020J,2026-03-01T09:36:49.971168,13.17646705,.0002266,87.9143,27.2465,83.4663,276.6726,0,U,45432,999,29216,.117E-3,.58E-6,0
ONEWEB-0064,2020-020K,2026-03-01T10:54:42.497856,13.11417178,.0002024,87.8843,42.4927,86.6885,273.4474,0,U,45433,999,28856,.34062E-3,.133E-5,0
ONEWEB-0018,2020-020L,2026-03-01T09:51:13.951296,13.11414587,.0001762,87.8852,42.4978,89.7092,270.4238,0,U,45434,999,28850,.84396E-3,.312E-5,0
ONEWEB-0083,2020-020M,2026-03-01T11:27:40.553280,13.11414959,.0001896,87.8853,42.4721,87.1692,272.9653,0,U,45435,999,28855,.14895E-2,.541E-5,0
ONEWEB-0095,2020-020N,2026-03-01T11:14:26.749824,13.11418079,.0002418,87.8849,42.4828,70.3750,289.7639,0,U,45436,999,28855,.16265E-2,.589E-5,0
ONEWEB-0092,2020-020P,2026-03-01T10:33:57.452256,13.11417893,.0001919,87.8851,42.4886,73.9413,286.1926,0,U,45437,999,28866,-.11045E-2,-.379E-5,0
ONEWEB-0085,2020-020Q,2026-03-01T11:26:27.237696,13.11415242,.0001856,87.8845,42.4858,83.8049,276.3290,0,U,45438,999,28855,.15903E-2,.576E-5,0
ONEWEB-0096,2020-020R,2026-03-01T11:28:53.685696,13.11414709,.0001804,87.8855,42.4731,84.3590,275.7744,0,U,45439,999,28854,.13863E-2,.504E-5,0
ONEWEB-0037,2020-020S,2026-03-01T11:00:48.972096,13.11418033,.0001896,87.8859,42.4524,81.8812,278.2531,0,U,45440,999,28857,.83213E-3,.308E-5,0
ONEWEB-0042,2020-020T,2026-03-01T11:14:02.471424,13.11416233,.0001779,87.8852,42.4729,82.9581,277.1750,0,U,45441,999,28854,.16801E-2,.608E-5,0
ONEWEB-0098,2020-020U,2026-03-01T11:08:08.331648,13.11416695,.0001919,87.8849,42.4851,86.8942,273.2406,0,U,45442,999,28852,.12029E-2,.439E-5,0
ONEWEB-0055,2020-020V,2026-03-01T10:43:43.429152,13.11418356,.0001887,87.8850,42.4883,86.4373,273.6971,0,U,45443,999,28849,-.75942E-3,-.256E-5,0
ONEWEB-0093,2020-020W,2026-03-01T11:58:22.597824,13.11414013,.0001467,87.8854,42.4676,78.1098,282.0194,0,U,45444,999,28856,-.63663E-3,-.213E-5,0
ONEWEB-0029,2020-020X,2026-03-01T10:31:30.271584,13.11416727,.0001696,87.8849,42.4915,85.7839,274.3482,0,U,45445,999,28853,-.12819E-2,-.442E-5,0
ONEWEB-0068,2020-020Y,2026-03-01T10:08:06.611136,13.11414146,.0001682,87.8856,42.4851,86.0852,274.0469,0,U,45446,999,28847,-.6362E-3,-.213E-5,0
ONEWEB-0046,2020-020Z,2026-03-01T11:45:58.265280,13.11414036,.0001746,87.8854,42.4785,77.9782,282.1542,0,U,45447,999,28849,.4875E-3,.185E-5,0
