ONEWEB-0054             
1 45158U 20008AD  26060.49500590 -.00000073  00000+0 -24459-3 0  9997
2 45158  87.8769  57.7073 0001912  85.8222 274.3124 13.10375974293927
ONEWEB-0056             
1 45159U 20008AE  26060.47590212 -.00000639  00000+0 -18683-2 0  9995
2 45159  87.8764  57.7113 0001967  83.2253 276.9098 13.10372950294070
ONEWEB-0057             
1 45160U 20008AF  26060.48351597 -.00000462  00000+0 -13603-2 0  9990
2 45160  87.8761  57.7198 0001698  80.9912 279.1407 13.10374297294243
ONEWEB-0058             
1 45161U 20008AG  26060.47023654 -.00000464  00000+0 -13647-2 0  9990
2 45161  87.8757  57.7318 0001945  95.6576 264.4774 13.10371223294315
ONEWEB-0059             
1 45162U 20008AH  26060.46677660 -.00000393  00000+0 -11612-2 0  9993
2 45162  87.8756  57.7327 0001791  91.9966 268.1366 13.10370635294219
ONEWEB-0062             
1 45163U 20008AJ  26060.49251282 -.00000194  00000+0 -59304-3 0  9995
2 45163  87.8775  57.7091 0002097  98.9840 261.1524 13.10376459294081
ONEWEB-0065             
1 45164U 20008AK  26060.44673913  .00000605  00000+0  16964-2 0  9999
2 45164  87.8755  57.7278 0001877  76.6865 283.4471 13.10371563293776
ONEWEB-0066             
1 45424U 20020A   26060.49195677  .00000067  00000+0  15417-3 0  9998
2 45424  87.8852  42.4815 0001725  88.5204 271.6121 13.11414218288560
ONEWEB-0067             
1 45425U 20020B   26060.45310190  .00000017  00000+0  12448-4 0  9991
2 45425  87.8862  42.3979 0001723  80.5190 279.6133 13.11417730288615
ONEWEB-0080             
1 45426U 20020C   26060.46227385  .00000378  00000+0  10297-2 0  9994
2 45426  87.8853  42.4854 0002047  93.4884 266.6478 13.11421371288582
ONEWEB-0090             
1 45427U 20020D   26060.48192492  .00000485  00000+0  13314-2 0  9999
2 45427  87.8847  42.4828 0001883  85.8439 274.2904 13.11414428288556
ONEWEB-0061             
1 45428U 20020E   26060.43756268 -.00000481  00000+0 -13927-2 0  9990
2 45428  87.8853  42.4771 0001847  86.1169 274.0170 13.11417867288503
ONEWEB-0081             
1 45429U 20020F   26060.49533682 -.00000138  00000+0 -42512-3 0  9992
2 45429  87.8853  42.4809 0001645  83.8708 276.2608 13.11413462288625
ONEWEB-0069             
1 45430U 20020G   26060.48433487  .00000386  00000+0  10541-2 0  9994
2 45430  87.8846  42.4783 0001761  84.1687 275.9641 13.11415779288557
ONEWEB-0031             
1 45431U 20020H   26060.45635500  .00000174  00000+0  45410-3 0  9991
2 45431  87.8841  42.5022 0001994  89.1644 270.9712 13.11417910288537
ONEWEB-0027             
1 45432U 20020J   26060.40057837  .00000058  00000+0  11700-3 0  9994
2 45432  87.9143  27.2465 0002266  83.4663 276.6726 13.17646705292160
ONEWEB-0064             
1 45433U 20020K   26060.45465854  .00000133  00000+0  34062-3 0  9992
2 45433  87.8843  42.4927 0002024  86.6885 273.4474 13.11417178288560
ONEWEB-0018             
1 45434U 20020L   26060.41057814  .00000312  00000+0  84396-3 0  9996
2 45434  87.8852  42.4978 0001762  89.7092 270.4238 13.11414587288509
ONEWEB-0083             
1 45435U 20020M   26060.47755270  .00000541  00000+0  14895-2 0  9994
2 45435  87.8853  42.4721 0001896  87.1692 272.9653 13.11414959288559
ONEWEB-0095             
1 45436U 20020N   26060.46836516  .00000589  00000+0  16265-2 0  9992
2 45436  87.8849  42.4828 0002418  70.3750 289.7639 13.11418079288550
ONEWEB-0092             
1 45437U 20020P   26060.44024829 -.00000379  00000+0 -11045-2 0  9997
2 45437  87.8851  42.4886 0001919  73.9413 286.1926 13.11417893288663
ONEWEB-0085             
1 45438U 20020Q   26060.47670414  .00000576  00000+0  15903-2 0  9992
2 45438  87.8845  42.4858 0001856  83.8049 276.3290 13.11415242288550
ONEWEB-0096             
1 45439U 20020R   26060.47839914  .00000504  00000+0  13863-2 0  9999
2 45439  87.8855  42.4731 0001804  84.3590 275.7744 13.11414709288545
ONEWEB-0037             
1 45440U 20020S   26060.45890014  .00000308  00000+0  83213-3 0  9996
2 45440  87.8859  42.4524 0001896  81.8812 278.2531 13.11418033288570
ONEWEB-0042             
1 45441U 20020T   26060.46808416  .00000608  00000+0  16801-2 0  9994
2 45441  87.8852  42.4729 0001779  82.9581 277.1750 13.11416233288544
ONEWEB-0098             
1 45442U 20020U   26060.46398532  .00000439  00000+0  12029-2 0  9998
2 45442  87.8849  42.4851 0001919  86.8942 273.2406 13.11416695288522
ONEWEB-0055             
1 45443U 20020V   26060.44703043 -.00000256  00000+0 -75942-3 0  9997
2 45443  87.8850  42.4883 0001887  86.4373 273.6971 13.11418356288491
ONEWEB-0093             
1 45444U 20020W   26060.49887266 -.00000213  00000+0 -63663-3 0  9993
2 45444  87.8854  42.4676 0001467  78.1098 282.0194 13.11414013288567
ONEWEB-0029             
1 45445U 20020X   26060.43854481 -.00000442  00000+0 -12819-2 0  9991
2 45445  87.8849  42.4915 0001696  85.7839 274.3482 13.11416727288534
ONEWEB-0068             
1 45446U 20020Y   26060.42229874 -.00000213  00000+0 -63620-3 0  9996
2 45446  87.8856  42.4851 0001682  86.0852 274.0469 13.11414146288474
ONEWEB-0046             
1 45447U 20020Z   26060.49025770  .00000185  00000+0  48750-3 0  9996
2 45447  87.8854  42.4785 0001746  77.9782 282.1542 13.11414036288493
